{"type":"Topology","objects":{"collection":{"type":"GeometryCollection","geometries":[{"type":"Polygon","arcs":[[0]],"id":"relation/2845145","properties":{"@id":"relation/2845145","admin_level":6,"boundary":"administrative","name":"Boukombé","name:fr":"Boukombé","official_name":"Commune de Boukombé","type":"boundary","@geometry":"bounds","code_department":"AT"}},{"type":"Polygon","arcs":[[1]],"id":"relation/2845193","properties":{"@id":"relation/2845193","admin_level":6,"boundary":"administrative","name":"Cobli","name:fr":"Cobly","official_name":"Commune de Cobli","type":"boundary","wikidata":"Q545022","wikipedia":"en:Cobly","@geometry":"bounds","code_department":"AT"}},{"type":"Polygon","arcs":[[2]],"id":"relation/2845202","properties":{"@id":"relation/2845202","admin_level":6,"boundary":"administrative","name":"Materi","name:fr":"Materi","official_name":"Commune de Materi","type":"boundary","wikidata":"Q3300020","wikipedia":"en:Matéri","@geometry":"bounds","code_department":"AT"}},{"type":"Polygon","arcs":[[3]],"id":"relation/2845829","properties":{"@id":"relation/2845829","admin_level":6,"boundary":"administrative","name":"Tanguièta","name:fr":"Tanguièta","official_name":"Commune de Tanguièta","type":"boundary","wikidata":"Q2269248","wikipedia":"en:Tanguiéta","@geometry":"bounds","code_department":"AT"}},{"type":"Polygon","arcs":[[4]],"id":"relation/2845842","properties":{"@id":"relation/2845842","admin_level":6,"boundary":"administrative","name":"Kerou","name:fr":"Kerou","official_name":"Commune de Kerou","type":"boundary","@geometry":"bounds","code_department":"AT"}},{"type":"Polygon","arcs":[[5]],"id":"relation/2845843","properties":{"@id":"relation/2845843","admin_level":6,"boundary":"administrative","name":"Kouandé","name:ar":"كواندي","name:fr":"Kouandé","official_name":"Commune de Kouandé","official_name:ar":"بلدية كواندي","type":"boundary","wikidata":"Q2527479","wikipedia":"en:Kouandé","@geometry":"bounds","code_department":"AT"}},{"type":"Polygon","arcs":[[6]],"id":"relation/2845844","properties":{"@id":"relation/2845844","admin_level":6,"boundary":"administrative","name":"Natitingou","name:ar":"ناتيتنغو","name:fr":"Natitingou","official_name":"Commune de Natitingou","official_name:ar":"بلدية ناتيتنغو","type":"boundary","wikidata":"Q31814441","@geometry":"bounds","code_department":"AT"}},{"type":"Polygon","arcs":[[7]],"id":"relation/2845846","properties":{"@id":"relation/2845846","admin_level":6,"boundary":"administrative","name":"Toucountouna","name:fr":"Toucountouna","official_name":"Commune de Toucountouna","type":"boundary","wikidata":"Q3532838","wikipedia":"en:Toucountouna","@geometry":"bounds","code_department":"AT"}},{"type":"Polygon","arcs":[[8]],"id":"relation/2845847","properties":{"@id":"relation/2845847","admin_level":6,"boundary":"administrative","name":"Pehonko","name:fr":"Péhonko","official_name":"Commune de Pehonko","type":"boundary","@geometry":"bounds","code_department":"AT"}},{"type":"Polygon","arcs":[[9]],"id":"relation/2848162","properties":{"@id":"relation/2848162","admin_level":6,"boundary":"administrative","name":"Banikoara","name:ar":"بانيكوارا","name:fr":"Banikoara","official_name":"Commune de Banikoara","official_name:ar":"بلدية بانيكوارا","type":"boundary","wikidata":"Q2200458","wikipedia":"en:Banikoara","@geometry":"bounds","code_department":"AL"}},{"type":"Polygon","arcs":[[10]],"id":"relation/2848356","properties":{"@id":"relation/2848356","admin_level":6,"boundary":"administrative","name":"Karimama","name:ar":"كاريماما","name:fr":"Karimama","official_name":"Commune de Karimama","type":"boundary","wikidata":"Q1860831","wikipedia:en":"Karimama, Benin","@geometry":"bounds","code_department":"AL"}},{"type":"Polygon","arcs":[[11]],"id":"relation/2848470","properties":{"@id":"relation/2848470","admin_level":6,"boundary":"administrative","name":"Malanville","name:ar":"مالانفيل","name:fr":"Malanville","official_name":"Commune de Malanville","type":"boundary","wikidata":"Q2337446","wikipedia":"en:Malanville","@geometry":"bounds","code_department":"AL"}},{"type":"Polygon","arcs":[[12]],"id":"relation/2850491","properties":{"@id":"relation/2850491","admin_level":6,"boundary":"administrative","name":"Segbana","name:fr":"Segbana","official_name":"commune de Segbana","type":"boundary","wikidata":"Q2202003","wikipedia":"en:Ségbana","@geometry":"bounds","code_department":"AL"}},{"type":"Polygon","arcs":[[13]],"id":"relation/2850527","properties":{"@id":"relation/2850527","admin_level":6,"boundary":"administrative","name":"Gogounou","name:fr":"Gogounou","official_name":"commune de Gogounou","type":"boundary","wikidata":"Q583110","wikipedia":"en:Gogounou","@geometry":"bounds","code_department":"AL"}},{"type":"Polygon","arcs":[[14]],"id":"relation/2850528","properties":{"@id":"relation/2850528","admin_level":6,"boundary":"administrative","name":"Kandi","name:ar":"كاندي","name:fr":"Kandi","official_name":"commune de Kandi","official_name:ar":"بلدية كاندي","type":"boundary","@geometry":"bounds","code_department":"AL"}},{"type":"Polygon","arcs":[[15]],"id":"relation/2851879","properties":{"@id":"relation/2851879","admin_level":6,"boundary":"administrative","contact:website":"https://www.villedecotonou.org/","name":"Cotonou","name:fr":"Cotonou","name:yo":"Kútọ̀nú","official_name":"Commune de Cotonou","type":"boundary","wikidata":"Q43595","wikipedia":"fr:Cotonou","@geometry":"bounds","code_department":"LI"}},{"type":"Polygon","arcs":[[16]],"id":"relation/2851895","properties":{"@id":"relation/2851895","admin_level":6,"boundary":"administrative","name":"Copargo","name:fr":"Copargo","official_name":"Commune de Copargo","type":"boundary","wikidata":"Q986059","wikipedia":"en:Copargo","@geometry":"bounds","code_department":"DO"}},{"type":"Polygon","arcs":[[17]],"id":"relation/2851897","properties":{"@id":"relation/2851897","admin_level":6,"boundary":"administrative","name":"Ouaké","name:fr":"Ouaké","official_name":"Commune d'Ouaké","type":"boundary","wikidata":"Q1125581","wikipedia":"en:Ouaké","@geometry":"bounds","code_department":"DO"}},{"type":"Polygon","arcs":[[18]],"id":"relation/2851901","properties":{"@id":"relation/2851901","admin_level":6,"alt_name:ar":"دجوغو","boundary":"administrative","name":"Djougou","name:ar":"جوغو","name:fr":"Djougou","official_name":"Commune de Djougou","official_name:ar":"بلدية جوغو","type":"boundary","wikidata":"Q31550564","wikipedia:sv":"Djougou (kommun)","@geometry":"bounds","code_department":"DO"}},{"type":"Polygon","arcs":[[19]],"id":"relation/2859960","properties":{"@id":"relation/2859960","admin_level":6,"boundary":"administrative","name":"Bembéréké","name:fr":"Bembéréké","official_name":"Commune de Bembéréké","type":"boundary","@geometry":"bounds","code_department":"BO"}},{"type":"Polygon","arcs":[[20]],"id":"relation/2859961","properties":{"@id":"relation/2859961","admin_level":6,"boundary":"administrative","name":"Kalalé","name:fr":"Kalalé","official_name":"commune de Kalalé","type":"boundary","wikidata":"Q3192088","wikipedia":"en:Kalalè","@geometry":"bounds","code_department":"BO"}},{"type":"Polygon","arcs":[[21]],"id":"relation/2859962","properties":{"@id":"relation/2859962","admin_level":6,"boundary":"administrative","name":"N'Dali","name:ar":"اندالي","name:fr":"N'Dali","official_name":"Commune de N'Dali","official_name:ar":"بلدية اندالي","type":"boundary","@geometry":"bounds","code_department":"BO"}},{"type":"Polygon","arcs":[[22]],"id":"relation/2859963","properties":{"@id":"relation/2859963","admin_level":6,"boundary":"administrative","name":"Nikki","name:ar":"نكي","name:fr":"Nikki","official_name":"Commune de Nikki","official_name:ar":"بلدية نكي","type":"boundary","@geometry":"bounds","code_department":"BO"}},{"type":"Polygon","arcs":[[23]],"id":"relation/2859964","properties":{"@id":"relation/2859964","admin_level":6,"boundary":"administrative","name":"Parakou","name:ar":"باراكو","name:fr":"Parakou","name:ru":"Параку","official_name":"Commune de Parakou","official_name:ar":"بلدية باراكو","type":"boundary","wikidata":"Q688324","wikipedia":"en:Parakou","@geometry":"bounds","code_department":"BO"}},{"type":"Polygon","arcs":[[24]],"id":"relation/2859965","properties":{"@id":"relation/2859965","admin_level":6,"boundary":"administrative","name":"Pèrèrè","name:fr":"Pèrèrè","official_name":"Commune de Pèrèrè","type":"boundary","wikidata":"Q2716795","wikipedia":"en:Pèrèrè","@geometry":"bounds","code_department":"BO"}},{"type":"Polygon","arcs":[[25]],"id":"relation/2859966","properties":{"@id":"relation/2859966","admin_level":6,"boundary":"administrative","name":"Sinendé","name:fr":"Sinendé","official_name":"Commune de Sinendé","type":"boundary","wikidata":"Q1857012","wikipedia":"en:Sinendé","@geometry":"bounds","code_department":"BO"}},{"type":"Polygon","arcs":[[26]],"id":"relation/2859967","properties":{"@id":"relation/2859967","admin_level":6,"boundary":"administrative","name":"Tchaourou","name:ar":"شورو","name:fr":"Tchaourou","official_name":"Commune de Tchaourou","official_name:ar":"بلدية شورو","type":"boundary","wikidata":"Q1364580","wikipedia":"en:Tchaourou","@geometry":"bounds","code_department":"BO"}},{"type":"Polygon","arcs":[[27]],"id":"relation/2860037","properties":{"@id":"relation/2860037","admin_level":6,"boundary":"administrative","name":"Savalou","name:ar":"سافالو","name:fr":"Savalou","official_name":"Commune de Savalou","official_name:ar":"بلدية سافالو","type":"boundary","wikidata":"Q544623","wikipedia":"en:Savalou","@geometry":"bounds","code_department":"CO"}},{"type":"Polygon","arcs":[[28]],"id":"relation/2860038","properties":{"@id":"relation/2860038","admin_level":6,"boundary":"administrative","name":"Bantè","name:fr":"Bantè","name:ru":"Банте","official_name":"Commune de Bantè","type":"boundary","wikidata":"Q1133694","wikipedia":"en:Bantè","@geometry":"bounds","code_department":"CO"}},{"type":"Polygon","arcs":[[29]],"id":"relation/2860039","properties":{"@id":"relation/2860039","admin_level":6,"boundary":"administrative","name":"Dassa-Zoumé","name:ar":"دسا زومه","name:fr":"Dassa-Zoumé","name:yo":"Ìdàáṣà","official_name":"Commune de Dassa-Zoumé","official_name:ar":"بلدية دسا زومه","type":"boundary","wikidata":"Q2609335","wikipedia":"en:Dassa-Zoumé","@geometry":"bounds","code_department":"CO"}},{"type":"Polygon","arcs":[[30]],"id":"relation/2860040","properties":{"@id":"relation/2860040","admin_level":6,"boundary":"administrative","name":"Glazoué","name:fr":"Glazoué","official_name":"Commune de Glazoué","type":"boundary","wikidata":"Q2449849","wikipedia":"en:Glazoué","@geometry":"bounds","code_department":"CO"}},{"type":"Polygon","arcs":[[31]],"id":"relation/2860041","properties":{"@id":"relation/2860041","admin_level":6,"boundary":"administrative","name":"Ouèssè","name:fr":"Ouèssè","name:ru":"Весе","official_name":"Commune de Ouèssè","type":"boundary","wikidata":"Q1133661","wikipedia":"en:Ouèssè","@geometry":"bounds","code_department":"CO"}},{"type":"Polygon","arcs":[[32]],"id":"relation/2860042","properties":{"@id":"relation/2860042","admin_level":6,"boundary":"administrative","name":"Savè","name:fr":"Savè","name:ru":"Саве","name:yo":"Ṣábẹ̀ẹ́","official_name":"Commune de Savè","type":"boundary","wikidata":"Q2609291","wikipedia":"en:Savè","@geometry":"bounds","code_department":"CO"}},{"type":"Polygon","arcs":[[33]],"id":"relation/2944694","properties":{"@id":"relation/2944694","admin_level":6,"boundary":"administrative","name":"Bassila","name:ar":"بسيلا","name:fr":"Bassila","official_name":"Commune de Bassila","official_name:ar":"بلدية بسيلا","type":"boundary","wikidata":"Q1893077","wikipedia":"fr:Bassila (commune)","@geometry":"bounds","code_department":"DO"}},{"type":"Polygon","arcs":[[34]],"id":"relation/2945784","properties":{"@id":"relation/2945784","admin_level":6,"boundary":"administrative","name":"Adja-Ouèrè","name:fr":"Adja-Ouèrè","official_name":"Commune de Adja-Ouèrè","type":"boundary","wikidata":"Q1133867","wikipedia":"en:Adja-Ouèrè","@geometry":"bounds","code_department":"PL"}},{"type":"Polygon","arcs":[[35]],"id":"relation/2945785","properties":{"@id":"relation/2945785","admin_level":6,"boundary":"administrative","name":"Adjarra","name:fr":"Adjarra","official_name":"Commune d'Adjarra","type":"boundary","wikidata":"Q2476120","wikipedia":"en:Adjarra","@geometry":"bounds","code_department":"OU"}},{"type":"Polygon","arcs":[[36]],"id":"relation/2945786","properties":{"@id":"relation/2945786","admin_level":6,"boundary":"administrative","name":"Aguégués","name:fr":"Aguégués","official_name":"Commune d'Aguégués","type":"boundary","wikidata":"Q605293","wikipedia":"en:Aguégués","@geometry":"bounds","code_department":"OU"}},{"type":"Polygon","arcs":[[37]],"id":"relation/2945787","properties":{"@id":"relation/2945787","admin_level":6,"boundary":"administrative","name":"Avrankou","name:fr":"Avrankou","official_name":"Commune d'Avrankou","type":"boundary","wikidata":"Q2375902","wikipedia":"en:Avrankou","@geometry":"bounds","code_department":"OU"}},{"type":"Polygon","arcs":[[38]],"id":"relation/2945788","properties":{"@id":"relation/2945788","admin_level":6,"boundary":"administrative","name":"Ifangni","name:fr":"Ifangni","official_name":"Commune de'Ifangni","type":"boundary","wikidata":"Q1134264","wikipedia":"en:Ifangni","@geometry":"bounds","code_department":"PL"}},{"type":"Polygon","arcs":[[39,40]],"id":"relation/2945789","properties":{"@id":"relation/2945789","admin_level":6,"boundary":"administrative","name":"Kétou","name:ar":"كيتو","name:fr":"Kétou","official_name":"Commune de Kétou","official_name:ar":"بلدية كيتو","type":"boundary","wikidata":"Q2474638","wikipedia":"en:Kétou, Benin","@geometry":"bounds","code_department":"PL"}},{"type":"Polygon","arcs":[[41]],"id":"relation/2945790","properties":{"@id":"relation/2945790","admin_level":6,"boundary":"administrative","name":"Pobè","name:ar":"بوبه","name:fr":"Pobè","name:zh":"波贝","official_name":"Commune de Pobè","official_name:ar":"بلدية بوبه","type":"boundary","wikidata":"Q269353","wikipedia":"en:Pobè","@geometry":"bounds","code_department":"PL"}},{"type":"Polygon","arcs":[[42]],"id":"relation/2945791","properties":{"@id":"relation/2945791","admin_level":6,"boundary":"administrative","name":"Porto Novo","name:fr":"Porto-Novo","official_name":"Commune de Porto Novo","type":"boundary","wikidata":"Q31476194","@geometry":"bounds","code_department":"OU"}},{"type":"Polygon","arcs":[[43]],"id":"relation/2945792","properties":{"@id":"relation/2945792","admin_level":6,"boundary":"administrative","name":"Sakété","name:ar":"ساكيتي","name:fr":"Sakété","official_name":"Commune de Sakété","official_name:ar":"بلدية ساكيتي","type":"boundary","wikidata":"Q31550609","@geometry":"bounds","code_department":"PL"}},{"type":"Polygon","arcs":[[44]],"id":"relation/2945793","properties":{"@id":"relation/2945793","admin_level":6,"boundary":"administrative","name":"Sèmè-Kpodji","name:fr":"Sèmè-Kpodji","official_name":"Commune de Sèmè-Kpodji","type":"boundary","wikidata":"Q2100355","wikipedia":"en:Sèmè-Kpodji","@geometry":"bounds","code_department":"OU"}},{"type":"Polygon","arcs":[[45]],"id":"relation/2945927","properties":{"@id":"relation/2945927","admin_level":6,"boundary":"administrative","name":"Akpro-Missérété","name:fr":"Akpro-Missérété","official_name":"Commune d'Akpro-Missérété","type":"boundary","wikidata":"Q2274435","wikipedia":"en:Akpro-Missérété","@geometry":"bounds","code_department":"OU"}},{"type":"Polygon","arcs":[[46]],"id":"relation/2945935","properties":{"@id":"relation/2945935","admin_level":6,"boundary":"administrative","name":"Adjohoun","name:fr":"Adjohoun","official_name":"Commune d'Adjohoun","type":"boundary","wikidata":"Q1134538","wikipedia":"en:Adjohoun","@geometry":"bounds","code_department":"OU"}},{"type":"Polygon","arcs":[[47]],"id":"relation/2945936","properties":{"@id":"relation/2945936","admin_level":6,"boundary":"administrative","name":"Bonou","name:fr":"Bonou","official_name":"Commune de Bonou","type":"boundary","wikidata":"Q1134995","wikipedia":"en:Bonou","@geometry":"bounds","code_department":"OU"}},{"type":"Polygon","arcs":[[48]],"id":"relation/2945937","properties":{"@id":"relation/2945937","admin_level":6,"boundary":"administrative","name":"Dangbo","name:fr":"Dangbo","official_name":"Commune de Dangbo","type":"boundary","wikidata":"Q2684866","wikipedia":"en:Dangbo","@geometry":"bounds","code_department":"OU"}},{"type":"Polygon","arcs":[[49]],"id":"relation/2945973","properties":{"@id":"relation/2945973","admin_level":6,"boundary":"administrative","name":"Ouinhi","name:fr":"Ouinhi","official_name":"Commune d'Ouinhi","type":"boundary","wikidata":"Q1134277","wikipedia":"en:Ouinhi","@geometry":"bounds","code_department":"ZO"}},{"type":"Polygon","arcs":[[50]],"id":"relation/2945974","properties":{"@id":"relation/2945974","admin_level":6,"boundary":"administrative","name":"Zangnanado","name:fr":"Zangnanado","name:ru":"Заньянадо","official_name":"Commune de Zangnanado","type":"boundary","wikidata":"Q3574757","wikipedia":"en:Zagnanado","@geometry":"bounds","code_department":"ZO"}},{"type":"Polygon","arcs":[[51]],"id":"relation/2945975","properties":{"@id":"relation/2945975","admin_level":6,"boundary":"administrative","name":"Zogbodomey","name:fr":"Zogbodomey","official_name":"Commune de Zogbodomey","type":"boundary","wikidata":"Q2050232","wikipedia":"en:Zogbodomey","@geometry":"bounds","code_department":"ZO"}},{"type":"Polygon","arcs":[[52]],"id":"relation/2946027","properties":{"@id":"relation/2946027","admin_level":6,"boundary":"administrative","name":"Abomey","name:ar":"أبومية","name:fr":"Abomey","name:ru":"Абомей","official_name":"Commune d'Abomey","official_name:ar":"بلدية أبومية","type":"boundary","wikidata":"Q31550517","@geometry":"bounds","code_department":"ZO"}},{"type":"Polygon","arcs":[[53]],"id":"relation/2946028","properties":{"@id":"relation/2946028","admin_level":6,"boundary":"administrative","name":"Agbangnizoun","name:fr":"Agbangnizoun","official_name":"Commune d'Agbangnizoun","type":"boundary","wikidata":"Q527734","wikipedia":"en:Agbangnizoun","@geometry":"bounds","code_department":"ZO"}},{"type":"Polygon","arcs":[[54]],"id":"relation/2946029","properties":{"@id":"relation/2946029","admin_level":6,"boundary":"administrative","name":"Bohicon","name:ar":"بوهيكون","name:fr":"Bohicon","official_name":"Commune de Bohicon","official_name:ar":"بلدية بوهيكون","type":"boundary","wikidata":"Q2356092","wikipedia":"en:Bohicon","@geometry":"bounds","code_department":"ZO"}},{"type":"Polygon","arcs":[[55]],"id":"relation/2946030","properties":{"@id":"relation/2946030","admin_level":6,"boundary":"administrative","name":"Covè","name:fr":"Covè","official_name":"Commune de Covè","type":"boundary","wikidata":"Q2464735","wikipedia":"en:Cové","@geometry":"bounds","code_department":"ZO"}},{"type":"Polygon","arcs":[[56]],"id":"relation/2946031","properties":{"@id":"relation/2946031","admin_level":6,"boundary":"administrative","name":"Djidja","name:fr":"Djidja","official_name":"Commune de Djidja","type":"boundary","wikidata":"Q1133856","wikipedia":"en:Djidja","@geometry":"bounds","code_department":"ZO"}},{"type":"Polygon","arcs":[[57]],"id":"relation/2946032","properties":{"@id":"relation/2946032","admin_level":6,"boundary":"administrative","name":"Za-Kpota","name:fr":"Za-Kpota","official_name":"Commune de Za-Kpota","type":"boundary","wikidata":"Q3574433","wikipedia":"en:Za-Kpota","@geometry":"bounds","code_department":"ZO"}},{"type":"Polygon","arcs":[[58]],"id":"relation/2946143","properties":{"@id":"relation/2946143","admin_level":6,"boundary":"administrative","name":"Sô-Ava","name:fr":"Sô-Ava","official_name":"Commune de Sô-Ava","type":"boundary","wikidata":"Q1118769","wikipedia":"en:Sô-Ava","@geometry":"bounds","code_department":"AQ"}},{"type":"Polygon","arcs":[[59]],"id":"relation/2946172","properties":{"@id":"relation/2946172","admin_level":6,"boundary":"administrative","name":"Abomey-Calavi","name:ar":"عبومي كالاوي","name:fr":"Abomey-Calavi","official_name":"Commune d'Abomey-Calavi","official_name:ar":"بلدية عبومي كالاوي","type":"boundary","wikidata":"Q31550532","@geometry":"bounds","code_department":"AQ"}},{"type":"Polygon","arcs":[[60]],"id":"relation/2946173","properties":{"@id":"relation/2946173","admin_level":6,"boundary":"administrative","name":"Ouidah","name:ar":"أويدا","name:fr":"Ouidah","official_name":"Commune d'Ouidah","official_name:ar":"بلدية أويدا","type":"boundary","wikidata":"Q31550580","@geometry":"bounds","code_department":"AQ"}},{"type":"Polygon","arcs":[[61]],"id":"relation/2946419","properties":{"@id":"relation/2946419","admin_level":6,"boundary":"administrative","name":"Allada","name:ar":"ألادا","name:fr":"Allada","official_name":"Commune d'Allada","official_name:ar":"بلدية ألادا","type":"boundary","wikidata":"Q960239","wikipedia":"en:Allada","@geometry":"bounds","code_department":"AQ"}},{"type":"Polygon","arcs":[[62]],"id":"relation/2946420","properties":{"@id":"relation/2946420","admin_level":6,"boundary":"administrative","name":"Athiémé","name:fr":"Athiémé","official_name":"Commune d'Athiémé","type":"boundary","wikidata":"Q2682057","wikipedia":"en:Athiémè","@geometry":"bounds","code_department":"MO"}},{"type":"Polygon","arcs":[[63]],"id":"relation/2946421","properties":{"@id":"relation/2946421","admin_level":6,"boundary":"administrative","name":"Bopa","name:fr":"Bopa","official_name":"Commune de Bopa","type":"boundary","wikidata":"Q2910571","wikipedia":"en:Bopa","@geometry":"bounds","code_department":"MO"}},{"type":"Polygon","arcs":[[64]],"id":"relation/2946422","properties":{"@id":"relation/2946422","admin_level":6,"boundary":"administrative","name":"Comé","name:fr":"Comé","official_name":"Commune de Comé","type":"boundary","wikidata":"Q31550725","@geometry":"bounds","code_department":"MO"}},{"type":"Polygon","arcs":[[65]],"id":"relation/2946423","properties":{"@id":"relation/2946423","admin_level":6,"boundary":"administrative","name":"Dogbo","name:ar":"دغبو","name:fr":"Dogbo","official_name":"Commune de Dogbo","official_name:ar":"بلدية دغبو","type":"boundary","wikidata":"Q2566827","wikipedia":"en:Dogbo-Tota","@geometry":"bounds","code_department":"CU"}},{"type":"Polygon","arcs":[[66]],"id":"relation/2946424","properties":{"@id":"relation/2946424","admin_level":6,"boundary":"administrative","name":"Grand-Popo","name:fr":"Grand-Popo","official_name":"Commune de Grand-Popo","type":"boundary","wikidata":"Q1542478","wikipedia":"en:Grand-Popo","@geometry":"bounds","code_department":"MO"}},{"type":"Polygon","arcs":[[67]],"id":"relation/2946425","properties":{"@id":"relation/2946425","admin_level":6,"boundary":"administrative","name":"Houéyogbé","name:fr":"Houéyogbé","official_name":"Commune d'Houéyogbé","type":"boundary","wikidata":"Q3141428","wikipedia":"en:Houéyogbé","@geometry":"bounds","code_department":"MO"}},{"type":"Polygon","arcs":[[68]],"id":"relation/2946426","properties":{"@id":"relation/2946426","admin_level":6,"boundary":"administrative","name":"Kpomassè","name:fr":"Kpomassè","official_name":"Commune de Kpomassè","type":"boundary","wikidata":"Q2693366","wikipedia":"en:Kpomassè","@geometry":"bounds","code_department":"AQ"}},{"type":"Polygon","arcs":[[69]],"id":"relation/2946427","properties":{"@id":"relation/2946427","admin_level":6,"boundary":"administrative","name":"Lokossa","name:ar":"لوكوسا","name:fr":"Lokossa","official_name":"Commune de Lokossa","official_name:ar":"بلدية لوكوسا","type":"boundary","wikidata":"Q219058","wikipedia":"fr:Lokossa","@geometry":"bounds","code_department":"MO"}},{"type":"Polygon","arcs":[[70]],"id":"relation/2946428","properties":{"@id":"relation/2946428","admin_level":6,"boundary":"administrative","name":"Toffo","name:fr":"Toffo","official_name":"Commune de Toffo","type":"boundary","wikidata":"Q2095710","wikipedia":"en:Toffo","@geometry":"bounds","code_department":"AQ"}},{"type":"Polygon","arcs":[[71]],"id":"relation/2946429","properties":{"@id":"relation/2946429","admin_level":6,"boundary":"administrative","name":"Tori-Bossito","name:fr":"Tori-Bossito","official_name":"Commune de Tori-Bossito","type":"boundary","wikidata":"Q1134963","wikipedia":"en:Tori-Bossito","@geometry":"bounds","code_department":"AQ"}},{"type":"Polygon","arcs":[[72]],"id":"relation/2946430","properties":{"@id":"relation/2946430","admin_level":6,"boundary":"administrative","name":"Zè","name:fr":"Zè","official_name":"Commune de Zè","type":"boundary","wikidata":"Q2256918","wikipedia":"en:Zè","@geometry":"bounds","code_department":"AQ"}},{"type":"Polygon","arcs":[[73]],"id":"relation/2946532","properties":{"@id":"relation/2946532","admin_level":6,"boundary":"administrative","name":"Aplahoué","name:ar":"أبلاهوي","name:fr":"Aplahoué","name:zh":"阿普拉惠","official_name":"Commune d'Aplahoué","official_name:ar":"بلدية أبلاهوي","type":"boundary","wikidata":"Q2336677","wikipedia":"en:Aplahoué","@geometry":"bounds","code_department":"CU"}},{"type":"Polygon","arcs":[[74]],"id":"relation/2946533","properties":{"@id":"relation/2946533","admin_level":6,"boundary":"administrative","name":"Djakotomey","name:fr":"Djakotomey","official_name":"Commune de Djakotomey","type":"boundary","wikidata":"Q3032740","wikipedia":"en:Djakotomey","@geometry":"bounds","code_department":"CU"}},{"type":"Polygon","arcs":[[75]],"id":"relation/2946534","properties":{"@id":"relation/2946534","admin_level":6,"boundary":"administrative","name":"Klouékanmè","name:fr":"Klouékanmè","official_name":"Commune de Klouékanmè","type":"boundary","wikidata":"Q3197910","wikipedia":"en:Klouékanmè","@geometry":"bounds","code_department":"CU"}},{"type":"Polygon","arcs":[[76]],"id":"relation/2946535","properties":{"@id":"relation/2946535","admin_level":6,"boundary":"administrative","name":"Lalo","name:fr":"Lalo","official_name":"Commune de Lalo","type":"boundary","wikidata":"Q2360019","wikipedia":"en:Lalo, Benin","@geometry":"bounds","code_department":"CU"}},{"type":"Polygon","arcs":[[77]],"id":"relation/2946536","properties":{"@id":"relation/2946536","admin_level":6,"boundary":"administrative","name":"Toviklin","name:fr":"Toviklin","official_name":"Commune de Toviklin","type":"boundary","wikidata":"Q2647400","wikipedia":"en:Toviklin","@geometry":"bounds","code_department":"CU"}},{"type":"Polygon","arcs":[[78]],"id":"relation/2803879","properties":{"@id":"relation/2803879","ISO3166-2":"BJ-AL","admin_level":4,"alt_name:ar":"أليبوري","boundary":"administrative","name":"Alibori","name:ar":"إدارة أليبوري","name:ast":"Alibori","name:az":"Alibori departamenti","name:be-tarask":"Алібары","name:bg":"Алибори","name:br":"Alibori","name:ca":"Alibori","name:ceb":"Alibori","name:da":"Alibori","name:de":"Alibori","name:en":"Alibori Department","name:es":"Departamento de Alibori","name:eu":"Alibori","name:fa":"استان آلیبوری","name:fi":"Alibori","name:fr":"Alibori","name:frr":"Alibori Department","name:hu":"Alibori","name:id":"Departemen Alibori","name:it":"Dipartimento di Alibori","name:ja":"アリボリ県","name:ko":"알리보리주","name:lt":"Aliborio departamentas","name:nan":"Alibori Koān","name:nl":"Alibori","name:no":"Alibori","name:pl":"Departament Alibori","name:pt":"Alibori","name:ro":"Departamentul Alibori","name:ru":"Алибори","name:sv":"Alibori","name:sw":"Alibori","name:tg":"Вилояти Алибори","name:tr":"Alibori Departmanı","name:uk":"Аліборі","name:ur":"الیبوری محکمہ","name:vi":"Alibori","name:wuu":"阿黎博里省","name:yo":"Apá Alibori","name:zh":"阿黎博里省","official_name":"Département de l'Alibori","source":"maplibrary.org","type":"boundary","wikidata":"Q29165","wikipedia":"fr:Alibori","@geometry":"bounds"}},{"type":"Polygon","arcs":[[79,80]],"id":"relation/2803880","properties":{"@id":"relation/2803880","ISO3166-2":"BJ-BO","admin_level":4,"alt_name:ar":"بورجو","boundary":"administrative","name":"Borgou","name:ar":"إدارة بورغو","name:ast":"Borgou","name:az":"Borqu departamenti","name:be-tarask":"Баргу","name:bg":"Боргу","name:br":"Borgou","name:ca":"Borgou","name:ceb":"Borgou Department","name:da":"Borgou","name:de":"Borgou","name:en":"Borgou Department","name:es":"Departamento de Borgou","name:eu":"Borgou","name:fa":"استان بورگو","name:fi":"Borgou","name:fr":"Borgou","name:frr":"Borgou Department","name:hu":"Borgou","name:id":"Departemen Borgou","name:it":"Dipartimento di Borgou","name:ja":"ボルグー県","name:ko":"보르구주","name:lt":"Borgu departamentas","name:nl":"Borgou","name:no":"Borgou","name:pl":"Departament Borgou","name:pt":"Borgou","name:ro":"Departamentul Borgou","name:ru":"Боргу","name:sv":"Borgou","name:sw":"Borgou","name:tg":"Вилояти Боргу","name:uk":"Боргу","name:ur":"بورگوؤ محکمہ","name:vi":"Borgou","name:wuu":"博尔古省","name:yo":"Apá Borgou","name:zh":"博爾古省","official_name":"Département du Borgou","official_name:ar":"إدارة بورغو","source":"maplibrary.org","type":"boundary","wikidata":"Q29136","wikipedia":"fr:Borgou","@geometry":"bounds"}},{"type":"Polygon","arcs":[[81]],"id":"relation/2845850","properties":{"@id":"relation/2845850","ISO3166-2":"BJ-AK","admin_level":4,"alt_name:ar":"أتاكورا","boundary":"administrative","name":"Atakora","name:ar":"إدارة أتاكورا","name:ast":"Atakora","name:az":"Ataqora departamenti","name:be-tarask":"Атакара","name:bg":"Атакора","name:br":"Atakora","name:ca":"Atakora","name:ceb":"Atakora Department","name:da":"Atakora","name:de":"Atakora","name:en":"Atakora Department","name:es":"Departamento de Atakora","name:eu":"Atakora","name:fa":"ناحیه آتاکورا","name:fi":"Atakora","name:fr":"Atacora","name:frr":"Atakora Department","name:hu":"Atakora","name:id":"Departemen Atakora","name:it":"Dipartimento di Atakora","name:ja":"アタコラ県","name:ko":"아타코라주","name:lt":"Atakoros departamentas","name:nl":"Atacora","name:no":"Atakora","name:pl":"Departament Atakora","name:pt":"Atakora","name:ro":"Departamentul Atakora","name:ru":"Атакора","name:sv":"Atacora","name:sw":"Atakora","name:tg":"Вилояти Атакора","name:tr":"Atakora Departmanı","name:uk":"Атакора","name:ur":"اتاکورا محکمہ","name:vi":"Atakora","name:wuu":"阿塔科拉省","name:yo":"Apá Atakora","name:zh":"阿塔科拉省","official_name":"Département de l'Atacora","official_name:ar":"إدارة أتاكورا","type":"boundary","wikidata":"Q29154","wikipedia":"fr:Atacora","@geometry":"bounds"}},{"type":"Polygon","arcs":[[82]],"id":"relation/2845865","properties":{"@id":"relation/2845865","ISO3166-2":"BJ-DO","admin_level":4,"alt_name:ar":"دونغا","boundary":"administrative","name":"Donga","name:ar":"إدارة دونجا","name:ast":"Donga","name:az":"Donqa departamenti","name:be-tarask":"Данга","name:bg":"Донга","name:br":"Donga","name:ca":"Donga","name:ceb":"Donga","name:da":"Donga","name:de":"Donga","name:en":"Donga Department","name:es":"Departamento de Donga","name:eu":"Donga","name:fa":"استان دونگا","name:fi":"Donga","name:fr":"Donga","name:frr":"Donga Department","name:hu":"Donga","name:id":"Departemen Donga","name:it":"Dipartimento di Donga","name:ja":"ドンガ県","name:ko":"동가주","name:lt":"Dongos departamentas","name:nl":"Donga","name:no":"Donga","name:pl":"Departament Donga","name:pt":"Donga","name:ro":"Departamentul Donga","name:ru":"Донга","name:sv":"Donga","name:sw":"Donga","name:tg":"Вилояти Донга","name:uk":"Донга","name:ur":"دونگا محکمہ","name:vi":"Donga","name:wuu":"峡谷省","name:yo":"Apá Donga","name:zh":"峽谷省","official_name":"département de Donga","official_name:ar":"إدارة دونغا","type":"boundary","wikidata":"Q29161","wikipedia":"fr:Donga (Bénin)","@geometry":"bounds"}},{"type":"Polygon","arcs":[[83]],"id":"relation/2845888","properties":{"@id":"relation/2845888","ISO3166-2":"BJ-CO","admin_level":4,"alt_name:ar":"كولينز","boundary":"administrative","name":"Collines","name:ar":"إدارة كولاينيس","name:ast":"Collines","name:az":"Kollins departamenti","name:be-tarask":"Калін","name:bg":"Колине","name:br":"Collines","name:ca":"Collines","name:ceb":"Collines Department","name:da":"Collines","name:de":"Collines","name:en":"Collines Department","name:es":"Departamento de Collines","name:eu":"Collines","name:fa":"استان کالینس","name:fi":"Collines","name:fr":"Collines","name:frr":"Collines Department","name:hu":"Collines","name:id":"Departemen Collines","name:it":"Dipartimento delle Colline","name:ja":"コリネス県","name:ko":"콜린주","name:lt":"Kalvų departamentas","name:nl":"Collines","name:no":"Collines","name:pl":"Departament Collines","name:pt":"Collines","name:ro":"Departamentul Collines","name:ru":"Коллинз","name:sv":"Collines","name:sw":"Collines","name:tg":"Вилояти Коллинес","name:uk":"Коллін","name:ur":"کولینز محکمہ","name:vi":"Collines","name:wuu":"丘陵省","name:yo":"Apá Collines","name:zh":"丘陵省","official_name":"département des Collines","official_name:ar":"إدارة التلال","type":"boundary","wikidata":"Q29141","wikipedia":"fr:Collines","@geometry":"bounds"}},{"type":"Polygon","arcs":[[39,84]],"id":"relation/2846872","properties":{"@id":"relation/2846872","ISO3166-2":"BJ-PL","admin_level":4,"alt_name:ar":"الهضبة","alt_name:fr":"Plateau","boundary":"administrative","name":"Plateau","name:ar":"إدارة بليتيو","name:ast":"Plateau","name:az":"Plato departamenti","name:be-tarask":"Плято","name:bg":"Плато","name:br":"Plateau","name:ca":"Plateau","name:ceb":"Plateau Department","name:da":"Plateau","name:de":"Plateau","name:en":"Plateau Department","name:es":"Departamento de Plateau","name:eu":"Plateau","name:fa":"استان پلاتئو","name:fi":"Plateau","name:fr":"Plateau","name:frr":"Plateau Department","name:hu":"Plateau","name:id":"Departemen Plateau","name:it":"Dipartimento dell'Altopiano","name:ja":"プラトー県","name:ko":"플라토주","name:lt":"Plynaukštės departamentas","name:nl":"Plateau","name:no":"Plateau","name:pl":"Departament Plateau","name:pt":"Plateau","name:ro":"Departamentul Plateau","name:ru":"Плато","name:sv":"Plateau","name:sw":"Plateau","name:tr":"Plateau Departmanı","name:uk":"Плато","name:ur":"پلیٹیو محکمہ","name:wuu":"高原省","name:yo":"Apá Plateau","name:zh":"高原省","official_name":"Département du Plateau","official_name:ar":"إدارة الهضبة","type":"boundary","wikidata":"Q32108","wikipedia":"fr:Plateau (département)","@geometry":"bounds"}},{"type":"Polygon","arcs":[[85]],"id":"relation/2846873","properties":{"@id":"relation/2846873","ISO3166-2":"BJ-ZO","admin_level":4,"alt_name:ar":"زو","boundary":"administrative","name":"Zou","name:ar":"إدارة زو","name:ast":"Zou","name:az":"Zu","name:be-tarask":"Зу","name:bg":"Зу","name:br":"Zou","name:ca":"Departament de Zou","name:ceb":"Zou Department","name:da":"Zou","name:de":"Zou","name:en":"Zou Department","name:es":"Departamento de Zou","name:eu":"Zou","name:fa":"استان زو","name:fi":"Zou","name:fr":"Zou","name:frr":"Zou Department","name:he":"מחוז זו","name:hu":"Zou","name:id":"Departemen Zou","name:it":"Dipartimento di Zou","name:ja":"ズー県","name:ko":"주주","name:lt":"Zu departamentas","name:nl":"Zou","name:no":"Zou","name:pl":"Departament Zou","name:pt":"Zou","name:ro":"Departamentul Zou","name:ru":"Зу","name:sv":"Zou","name:sw":"Zou","name:tg":"Вилояти Зу","name:tr":"Zou Departmanı","name:uk":"Зу","name:ur":"زوؤ محکمہ","name:uz":"Zu","name:wuu":"祖省","name:yo":"Apá Zou","name:zh":"祖省","official_name":"Département de Zou","official_name:ar":"إدارة زو","type":"boundary","wikidata":"Q29172","wikipedia":"fr:Zou","@geometry":"bounds"}},{"type":"Polygon","arcs":[[86]],"id":"relation/2846891","properties":{"@id":"relation/2846891","ISO3166-2":"BJ-KO","admin_level":4,"alt_name:ar":"كوفو","boundary":"administrative","name":"Kouffo","name:ar":"إدارة كوفو","name:ast":"Kouffo","name:az":"Kuffo departamenti","name:be-tarask":"Куфо","name:bg":"Куфо","name:br":"Kouffo","name:ca":"Kouffo","name:ceb":"Kouffo Department","name:da":"Kouffo","name:de":"Couffo","name:en":"Kouffo Department","name:es":"Departamento de Kouffo","name:eu":"Kouffo","name:fa":"استان کوفو","name:fi":"Kouffo","name:fr":"Couffo","name:frr":"Couffo Department","name:hu":"Couffo","name:id":"Departemen Kouffo","name:it":"Dipartimento di Kouffo","name:ja":"クッフォ県","name:ko":"쿠포주","name:lt":"Kufo departamentas","name:nl":"Couffo","name:no":"Kouffo","name:pl":"Departament Kouffo","name:pt":"Kouffo","name:ro":"Departamentul Kouffo","name:ru":"Куффо","name:sv":"Couffo","name:sw":"Couffo","name:tg":"Вилояти Куффо","name:uk":"Куффо","name:ur":"کوؤفو محکمہ","name:vi":"Kouffo","name:wuu":"库福省","name:yo":"Apá Kouffo","name:zh":"库福省","official_name:ar":"إدارة كوفو","type":"boundary","wikidata":"Q29173","wikipedia":"fr:Couffo","@geometry":"bounds"}},{"type":"Polygon","arcs":[[87]],"id":"relation/2848205","properties":{"@id":"relation/2848205","ISO3166-2":"BJ-AQ","admin_level":4,"alt_name:ar":"الأطلنطية","boundary":"administrative","name":"Atlantique","name:ar":"إدارة أتلانتيك","name:ast":"Atlantique","name:az":"Atlantiq departamenti","name:be-tarask":"Атлянтык","name:bg":"Атлантик","name:br":"Atlantique","name:ca":"Atlantique","name:ceb":"Atlantique Department","name:da":"Atlantique","name:de":"Atlantique","name:en":"Atlantique Department","name:es":"Departamento de Atlantique","name:eu":"Atlantique","name:fa":"استان آتلانتیک","name:fi":"Atlantique","name:fr":"Atlantique","name:frr":"Atlantique Department","name:hu":"Atlantique","name:id":"Departemen Atlantique","name:it":"Dipartimento dell'Atlantico","name:ja":"アトランティック県","name:ko":"아틀랑티크주","name:lt":"Atlanto departamentas","name:nl":"Atlantique","name:no":"Atlantique","name:pl":"Departament Atlantique","name:pt":"Atlântico","name:ro":"Departamentul Atlantique","name:ru":"Атлантический","name:sv":"Atlantique","name:sw":"Atlantique","name:tg":"Вилояти Атлантик","name:tr":"Atlantique Departmanı","name:uk":"Атлантичний","name:ur":"اٹلانٹک محکمہ","name:vi":"Atlantique","name:wuu":"大西洋省","name:yo":"Apá Atlantique","name:zh":"大西洋省","official_name":"Département d'Atlantique","official_name:ar":"إدارة الأطلنطية","type":"boundary","wikidata":"Q29147","wikipedia":"fr:Atlantique (département)","@geometry":"bounds"}},{"type":"Polygon","arcs":[[15]],"id":"relation/2848206","properties":{"@id":"relation/2848206","ISO3166-2":"BJ-LI","admin_level":4,"boundary":"administrative","name":"Littoral","name:ar":"الإدارة الساحلية","name:ast":"Littoral","name:az":"Litoral departamenti","name:azb":"استان لیتورال","name:be-tarask":"Літараль","name:bg":"Литорал","name:br":"Littoral","name:ca":"Littoral","name:ceb":"Littoral","name:da":"Littoral","name:de":"Littoral","name:en":"Littoral Department","name:es":"Departamento Litoral","name:eu":"Littoral","name:fa":"استان لیتورال","name:fi":"Littoral","name:fr":"Littoral","name:frr":"Littoral Department","name:hu":"Littoral","name:id":"Departemen Littoral","name:it":"Dipartimento del Litorale","name:ja":"リトラル県","name:ko":"리토랄주","name:lt":"Pakrantės departamentas","name:nl":"Littoral","name:no":"Littoral","name:pl":"Departament Littoral","name:pt":"Litoral","name:ro":"Departamentul Littoral","name:ru":"Литораль","name:sw":"Mkoa wa Pwani","name:tg":"Вилояти Литторал","name:tr":"Littoral Departmanı","name:uk":"Літораль","name:ur":"لیتورال محکمہ","name:vi":"Littoral","name:wuu":"滨海省","name:yo":"Apá Littoral","name:zh":"濱海省","official_name":"Dèpartement de Littoral","type":"boundary","wikidata":"Q29158","wikipedia":"fr:Littoral (département)","@geometry":"bounds"}},{"type":"Polygon","arcs":[[88]],"id":"relation/2848207","properties":{"@id":"relation/2848207","ISO3166-2":"BJ-MO","admin_level":4,"alt_name:ar":"مونو","boundary":"administrative","name":"Mono","name:ar":"إدارة مونو","name:ast":"Mono","name:az":"Mono departamenti","name:be-tarask":"Мано","name:bg":"Моно","name:br":"Mono","name:ca":"Mono","name:ceb":"Mono","name:da":"Mono","name:de":"Mono","name:en":"Mono Department","name:es":"Departamento de Mono","name:eu":"Mono","name:fa":"استان مونو","name:fi":"Mono","name:fr":"Mono","name:frr":"Mono Department","name:hu":"Mono","name:id":"Departemen Mono","name:it":"Dipartimento di Mono","name:ja":"モノ県","name:ko":"모노주","name:lt":"Mono departamentas","name:nl":"Mono","name:no":"Mono","name:pl":"Departament Mono","name:pt":"Mono","name:ro":"Departamentul Mono","name:ru":"Моно","name:sv":"Mono","name:sw":"Mono","name:tg":"Вилояти Моно","name:tr":"Mono Departmanı","name:uk":"Моно","name:ur":"مونو محکمہ","name:vi":"Mono","name:wuu":"莫诺省","name:yo":"Apá Mono","name:zh":"莫諾省","official_name":"Dèpartement de Mono","official_name:ar":"إدارة مونو","type":"boundary","wikidata":"Q29135","wikipedia":"fr:Mono (département)","@geometry":"bounds"}},{"type":"Polygon","arcs":[[89]],"id":"relation/2848208","properties":{"@id":"relation/2848208","ISO3166-2":"BJ-OU","admin_level":4,"boundary":"administrative","name":"Ouémé","name:ar":"إدارة أويميه","name:ast":"Ouémé","name:az":"Veme departamenti","name:be-tarask":"Уэмэ","name:bg":"Уеме","name:br":"Ouémé","name:ca":"Ouémé","name:ceb":"Département de l'Ouémé","name:da":"Ouémé","name:de":"Ouémé","name:en":"Ouémé Department","name:es":"Departamento de Ouémé","name:eu":"Ouémé","name:fa":"استان اومه","name:fi":"Ouémé","name:fr":"Ouémé","name:frr":"Ouémé Department","name:hu":"Ouémé","name:id":"Departemen Ouémé","name:it":"Dipartimento di Ouémé","name:ja":"ウェメ県","name:ko":"우에메주","name:lt":"Uemės departamentas","name:nl":"Ouémé","name:no":"Ouémé","name:pl":"Departament Ouémé","name:pt":"Ouémé","name:ro":"Departamentul Ouémé","name:ru":"Уэме","name:sv":"Ouémé","name:sw":"Ouémé","name:tg":"Вилояти Оуеме","name:tr":"Ouémé Departmanı","name:uk":"Веме","name:ur":"اؤیمے محکمہ","name:wuu":"韦梅省","name:yo":"Apá Ouémé","name:zh":"韋梅省","official_name":"Département d'Ouémé","type":"boundary","wikidata":"Q29169","wikipedia":"fr:Ouémé","@geometry":"bounds"}}]}},"arcs":[[[0.897222,9.995278],[1.390467,9.995278],[1.390467,10.4743345],[0.897222,10.4743345],[0.897222,9.995278]],[[0.776667,10.291944],[1.1001723,10.291944],[1.1001723,10.6696481],[0.776667,10.6696481],[0.776667,10.291944]],[[0.800278,10.5490435],[1.2694285,10.5490435],[1.2694285,11.094468],[0.800278,11.094468],[0.800278,10.5490435]],[[1.0496149,10.4387182],[1.9784059,10.4387182],[1.9784059,11.4810749],[1.0496149,11.4810749],[1.0496149,10.4387182]],[[1.6805877,10.5129654],[2.2883689,10.5129654],[2.2883689,11.4306508],[1.6805877,11.4306508],[1.6805877,10.5129654]],[[1.3887261,9.9507554],[2.0393167,9.9507554],[2.0393167,10.9127271],[1.3887261,10.9127271],[1.3887261,9.9507554]],[[1.2086811,10.0279587],[1.6467696,10.0279587],[1.6467696,10.458883],[1.2086811,10.458883],[1.2086811,10.0279587]],[[1.2186911,10.3810589],[1.6655194,10.3810589],[1.6655194,10.7509612],[1.2186911,10.7509612],[1.2186911,10.3810589]],[[1.8042,10.0277796],[2.2761109,10.0277796],[2.2761109,10.5516919],[1.8042,10.5516919],[1.8042,10.0277796]],[[2.021875,10.9612437],[2.9138017,10.9612437],[2.9138017,11.6911365],[2.021875,11.6911365],[2.021875,10.9612437]],[[2.2981811,11.4232576],[3.2829964,11.4232576],[3.2829964,12.4092028],[2.2981811,12.4092028],[2.2981811,11.4232576]],[[2.9387047,11.3120827],[3.609432,11.3120827],[3.609432,12.0019456],[2.9387047,12.0019456],[2.9387047,11.3120827]],[[3.1271636,10.5479698],[3.838806,10.5479698],[3.838806,11.4045563],[3.1271636,11.4045563],[3.1271636,10.5479698]],[[2.260556,10.5233927],[3.2314545,10.5233927],[3.2314545,11.1808547],[2.260556,11.1808547],[2.260556,10.5233927]],[[2.6341454,10.8999909],[3.276346,10.8999909],[3.276346,11.6699808],[2.6341454,11.6699808],[2.6341454,10.8999909]],[[2.3545745,6.337276],[2.4958483,6.337276],[2.4958483,6.3992392],[2.3545745,6.3992392],[2.3545745,6.337276]],[[1.355,9.7231467],[1.7534836,9.7231467],[1.7534836,10.0396602],[1.355,10.0396602],[1.355,9.7231467]],[[1.3375,9.394135],[1.5650368,9.394135],[1.5650368,9.8459043],[1.3375,9.8459043],[1.3375,9.394135]],[[1.4395359,9.3433332],[2.1633329,9.3433332],[2.1633329,10.0609586],[1.4395359,10.0609586],[1.4395359,9.3433332]],[[2.471513,9.9162099],[3.1271636,9.9162099],[3.1271636,10.5873899],[2.471513,10.5873899],[2.471513,9.9162099]],[[3.8451454,10.650588],[2.92945,10.650588],[2.92945,10.0359627],[3.8451454,10.0359627],[3.8451454,10.650588]],[[2.073889,9.3699006],[2.8375281,9.3699006],[2.8375281,10.0037852],[2.073889,10.0037852],[2.073889,9.3699006]],[[2.7613122,9.6344678],[3.6100498,9.6344678],[3.6100498,10.1656252],[2.7613122,10.1656252],[2.7613122,9.6344678]],[[2.4808043,9.2328678],[2.7717943,9.2328678],[2.7717943,9.4419358],[2.4808043,9.4419358],[2.4808043,9.2328678]],[[2.7742116,9.3364203],[3.2533182,9.3364203],[3.2533182,9.8745325],[2.7742116,9.8745325],[2.7742116,9.3364203]],[[2.0866671,9.9397413],[2.5733223,9.9397413],[2.5733223,10.5849304],[2.0866671,10.5849304],[2.0866671,9.9397413]],[[1.969722,8.7474283],[3.157868,8.7474283],[3.157868,9.6735064],[1.969722,9.6735064],[1.969722,8.7474283]],[[1.6360419,7.5411082],[2.140801,7.5411082],[2.140801,8.1922113],[1.6360419,8.1922113],[1.6360419,7.5411082]],[[1.613056,8.0555649],[2.1300001,8.0555649],[2.1300001,8.61667],[1.613056,8.61667],[1.613056,8.0555649]],[[2.0451432,7.4415612],[2.4980838,7.4415612],[2.4980838,7.9402044],[2.0451432,7.9402044],[2.0451432,7.4415612]],[[2.0956836,7.8257873],[2.3864259,7.8257873],[2.3864259,8.5124998],[2.0956836,8.5124998],[2.0956836,7.8257873]],[[2.769031,8.7808066],[2.2036109,8.7808066],[2.2036109,8.1162312],[2.769031,8.1162312],[2.769031,8.7808066]],[[2.3458486,7.6569452],[2.7553977,7.6569452],[2.7553977,8.3146638],[2.3458486,8.3146638],[2.3458486,7.6569452]],[[2.2218776,8.4752769],[2.2218776,9.4596632],[1.398611,9.4596632],[1.398611,8.4752769],[2.2218776,8.4752769]],[[2.5106384,6.8441821],[2.741998,6.8441821],[2.741998,7.1774998],[2.5106384,7.1774998],[2.5106384,6.8441821]],[[2.6451478,6.4436117],[2.724148,6.4436117],[2.724148,6.5426524],[2.6451478,6.5426524],[2.6451478,6.4436117]],[[2.4858314,6.4361656],[2.5948984,6.4361656],[2.5948984,6.5359376],[2.4858314,6.5359376],[2.4858314,6.4361656]],[[2.6290289,6.5187225],[2.729991,6.5187225],[2.729991,6.6046742],[2.6290289,6.6046742],[2.6290289,6.5187225]],[[2.6740772,6.540577],[2.7920562,6.540577],[2.7920562,6.7483304],[2.6740772,6.7483304],[2.6740772,6.540577]],[[2.796035,7.6599998],[2.416667,7.6599998]],[[2.416667,7.6599998],[2.416667,7.1635326],[2.796035,7.1635326],[2.796035,7.6599998]],[[2.6053413,6.9250312],[2.7728036,6.9250312],[2.7728036,7.1894116],[2.6053413,7.1894116],[2.6053413,6.9250312]],[[2.5798893,6.4485003],[2.6699495,6.4485003],[2.6699495,6.5350056],[2.5798893,6.5350056],[2.5798893,6.4485003]],[[2.5642174,6.5922035],[2.7920562,6.5922035],[2.7920562,6.900355],[2.5642174,6.900355],[2.5642174,6.5922035]],[[2.4775271,6.3580597],[2.7068154,6.3580597],[2.7068154,6.4681869],[2.4775271,6.4681869],[2.4775271,6.3580597]],[[2.5715398,6.5127419],[2.6509266,6.5127419],[2.6509266,6.6426832],[2.5715398,6.6426832],[2.5715398,6.5127419]],[[2.4381054,6.6068887],[2.5959745,6.6068887],[2.5959745,6.7885663],[2.4381054,6.7885663],[2.4381054,6.6068887]],[[2.3861403,6.9976265],[2.3861403,6.7763574],[2.5869354,6.7763574],[2.5869354,6.9976265],[2.3861403,6.9976265]],[[2.445889,6.4935117],[2.5821376,6.4935117],[2.5821376,6.6345543],[2.445889,6.6345543],[2.445889,6.4935117]],[[2.4114532,6.9880229],[2.5634581,6.9880229],[2.5634581,7.1775709],[2.4114532,7.1775709],[2.4114532,6.9880229]],[[2.2979371,6.9880229],[2.5380549,6.9880229],[2.5380549,7.5153198],[2.2979371,7.5153198],[2.2979371,6.9880229]],[[1.974398,6.9094439],[2.4145432,6.9094439],[2.4145432,7.1261113],[1.974398,7.1261113],[1.974398,6.9094439]],[[1.9225933,7.1047314],[2.0643267,7.1047314],[2.0643267,7.2261104],[1.9225933,7.2261104],[1.9225933,7.1047314]],[[1.869444,6.9883642],[2.0653239,6.9883642],[2.0653239,7.1517541],[1.869444,7.1517541],[1.869444,6.9883642]],[[2.0306909,7.1093298],[2.216691,7.1093298],[2.216691,7.2577862],[2.0306909,7.2577862],[2.0306909,7.1093298]],[[2.140801,7.0523263],[2.3811,7.0523263],[2.3811,7.5475643],[2.140801,7.5475643],[2.140801,7.0523263]],[[1.641389,7.6574191],[1.641389,7.142777],[2.2409645,7.142777],[2.2409645,7.6574191],[1.641389,7.6574191]],[[2.0849127,7.1093298],[2.3208827,7.1093298],[2.3208827,7.3310237],[2.0849127,7.3310237],[2.0849127,7.1093298]],[[2.3783395,6.3850353],[2.4948624,6.3850353],[2.4948624,6.6404721],[2.3783395,6.6404721],[2.3783395,6.3850353]],[[2.2296377,6.3438819],[2.445889,6.3438819],[2.445889,6.6805346],[2.2296377,6.6805346],[2.2296377,6.3438819]],[[1.9557676,6.3023999],[2.2671908,6.3023999],[2.2671908,6.4764141],[1.9557676,6.4764141],[1.9557676,6.3023999]],[[1.991111,6.571338],[2.2544059,6.571338],[2.2544059,6.7728834],[1.991111,6.7728834],[1.991111,6.571338]],[[1.644522,6.4595933],[1.8021781,6.4595933],[1.8021781,6.6045526],[1.644522,6.6045526],[1.644522,6.4595933]],[[2.0372219,6.7824863],[1.8287954,6.7824863],[1.8287954,6.4892294],[2.0372219,6.4892294],[2.0372219,6.7824863]],[[1.8429803,6.3582076],[1.9720866,6.3582076],[1.9720866,6.5072811],[1.8429803,6.5072811],[1.8429803,6.3582076]],[[1.6081209,6.7148458],[1.9383739,6.7148458],[1.9383739,6.8517452],[1.6081209,6.8517452],[1.6081209,6.7148458]],[[1.6288049,6.2351358],[1.9807979,6.2351358],[1.9807979,6.484611],[1.6288049,6.484611],[1.6288049,6.2351358]],[[1.7774353,6.439664],[1.9609486,6.439664],[1.9609486,6.649081],[1.7774353,6.649081],[1.7774353,6.439664]],[[1.9417798,6.3449559],[2.1006688,6.3449559],[2.1006688,6.6191669],[1.9417798,6.6191669],[1.9417798,6.3449559]],[[1.5750553,6.5853201],[1.9157188,6.5853201],[1.9157188,6.7823321],[1.5750553,6.7823321],[1.5750553,6.5853201]],[[2.033056,6.7207484],[2.3557865,6.7207484],[2.3557865,6.9305549],[2.033056,6.9305549],[2.033056,6.7207484]],[[2.0402568,6.4394715],[2.2697772,6.4394715],[2.2697772,6.6156572],[2.0402568,6.6156572],[2.0402568,6.4394715]],[[2.2119787,6.5416675],[2.4445842,6.5416675],[2.4445842,6.9307267],[2.2119787,6.9307267],[2.2119787,6.5416675]],[[1.5590323,7.5300615],[1.5590323,6.8658501],[1.843333,6.8658501],[1.843333,7.5300615],[1.5590323,7.5300615]],[[1.5943251,6.7422438],[1.7930935,6.7422438],[1.7930935,6.9611277],[1.5943251,6.9611277],[1.5943251,6.7422438]],[[1.7437124,6.9421248],[1.943333,6.9421248],[1.943333,7.2038889],[1.7437124,7.2038889],[1.7437124,6.9421248]],[[1.8671979,6.7325378],[2.0963891,6.7325378],[2.0963891,7.0158329],[1.8671979,7.0158329],[1.8671979,6.7325378]],[[1.763677,6.8275757],[1.8795879,6.8275757],[1.8795879,6.9565252],[1.763677,6.9565252],[1.763677,6.8275757]],[[2.021875,10.5233927],[3.838806,10.5233927],[3.838806,12.4092028],[2.021875,12.4092028],[2.021875,10.5233927]],[[1.969722,8.7474283],[3.8451454,8.7474283],[3.8451454,10.650588]],[[3.8451454,10.650588],[1.969722,10.650588],[1.969722,8.7474283]],[[0.776667,9.9507554],[2.2883689,9.9507554],[2.2883689,11.4810749],[0.776667,11.4810749],[0.776667,9.9507554]],[[2.2218776,8.4752769],[2.2218776,10.0609586],[1.3375,10.0609586],[1.3375,8.4752769],[2.2218776,8.4752769]],[[2.769031,8.7808066],[1.613056,8.7808066],[1.613056,7.4415612],[2.769031,7.4415612],[2.769031,8.7808066]],[[2.416667,7.6599998],[2.416667,6.540577],[2.796035,6.540577],[2.796035,7.6599998]],[[1.641389,7.6574191],[1.641389,6.9094439],[2.5634581,6.9094439],[2.5634581,7.6574191],[1.641389,7.6574191]],[[1.5590323,7.5300615],[1.5590323,6.7148458],[2.0963891,6.7148458],[2.0963891,7.5300615],[1.5590323,7.5300615]],[[1.9417798,6.3023999],[2.4948624,6.3023999],[2.4948624,6.9307267],[1.9417798,6.9307267],[1.9417798,6.3023999]],[[2.0372219,6.7824863],[1.5750553,6.7824863],[1.5750553,6.2351358],[2.0372219,6.2351358],[2.0372219,6.7824863]],[[2.3861403,6.9976265],[2.3861403,6.3580597],[2.729991,6.3580597],[2.729991,6.9976265],[2.3861403,6.9976265]]],"bbox":[0.776667,6.2351358,3.8451454,12.4092028]}